NORAD_CAT_ID,OBJECT_NAME,OBJECT_TYPE,EPOCH,MEAN_MOTION,ECCENTRICITY,INCLINATION,RA_OF_ASC_NODE,ARG_OF_PERICENTER,MEAN_ANOMALY,BSTAR,MEAN_MOTION_DOT,MEAN_MOTION_DDOT,TLE_LINE0,TLE_LINE1,TLE_LINE2,SEMIMAJOR_AXIS,PERIOD,APOGEE,PERIGEE,DECAYED
53792.0,STARLINK-4739,PAYLOAD,2024-05-26 18:31:55,15.08850702,0.0001169,53.217,321.0436,73.6644,286.4477,0.00082497,0.0001287,0.0,0 STARLINK-4739,1 53792U 22111V   24147.77216991  .00012870  00000-0  82497-3 0  9994,2 53792  53.2170 321.0436 0001169  73.6644 286.4477 15.08850702 95268,6917.848,95.437,540.521,538.904,0.0
53792.0,STARLINK-4739,PAYLOAD,2024-05-27 12:01:09,15.08859921,0.0002695,53.217,317.7729,77.9503,282.1791,0.00072689,0.00011306,0.0,0 STARLINK-4739,1 53792U 22111V   24148.50080748  .00011306  00000-0  72689-3 0  9990,2 53792  53.2170 317.7729 0002695  77.9503 282.1791 15.08859921 95377,6917.819,95.436,541.549,537.82,0.0
53792.0,STARLINK-4739,PAYLOAD,2024-05-27 19:58:05,15.08841458,0.0001149,53.2171,316.286,74.8695,285.2424,6.2341e-05,7.05e-06,0.0,0 STARLINK-4739,1 53792U 22111V   24148.83200843  .00000705  00000-0  62341-4 0  9992,2 53792  53.2171 316.2860 0001149  74.8695 285.2424 15.08841458 94629,6917.876,95.437,540.536,538.946,0.0
53792.0,STARLINK-4739,PAYLOAD,2024-05-28 21:24:15,15.08843128,0.0001166,53.2177,311.5269,96.7959,263.3166,5.9105e-05,6.53e-06,0.0,0 STARLINK-4739,1 53792U 22111V   24149.89184727  .00000653  00000-0  59105-4 0  9997,2 53792  53.2177 311.5269 0001166  96.7959 263.3166 15.08843128 95583,6917.871,95.437,540.542,538.929,0.0
53792.0,STARLINK-4739,PAYLOAD,2024-05-29 11:42:43,15.08843431,0.0001137,53.2171,308.851,99.2751,260.837,0.00015179,2.129e-05,0.0,0 STARLINK-4739,1 53792U 22111V   24150.48800688  .00002129  00000-0  15179-3 0  9997,2 53792  53.2171 308.8510 0001137  99.2751 260.8370 15.08843431 95677,6917.87,95.437,540.521,538.948,0.0
53792.0,STARLINK-4739,PAYLOAD,2024-05-29 18:04:16,15.08844284,0.0001111,53.2173,307.6615,87.4083,272.7036,0.00015727,2.216e-05,0.0,0 STARLINK-4739,1 53792U 22111V   24150.75296680  .00002216  00000-0  15727-3 0  9994,2 53792  53.2173 307.6615 0001111  87.4083 272.7036 15.08844284 95714,6917.867,95.437,540.501,538.964,0.0
53792.0,STARLINK-4739,PAYLOAD,2024-05-30 09:58:07,15.08844151,9.85e-05,53.2166,304.6881,91.9664,268.1441,0.00016785,2.385e-05,0.0,0 STARLINK-4739,1 53792U 22111V   24151.41536632  .00002385  00000-0  16785-3 0  9994,2 53792  53.2166 304.6881 0000985  91.9664 268.1441 15.08844151 95016,6917.868,95.437,540.414,539.051,0.0
53792.0,STARLINK-4739,PAYLOAD,2024-05-30 14:44:17,15.08845481,8.8e-05,53.2166,303.7952,88.6354,271.4738,0.00011468,1.538e-05,0.0,0 STARLINK-4739,1 53792U 22111V   24151.61408638  .00001538  00000-0  11468-3 0  9992,2 53792  53.2166 303.7952 0000880  88.6354 271.4738 15.08845481 95842,6917.864,95.437,540.337,539.12,0.0
53792.0,STARLINK-4739,PAYLOAD,2024-05-30 17:55:03,15.08846312,0.000102,53.2165,303.2007,82.6764,277.4344,0.00012786,1.748e-05,0.0,0 STARLINK-4739,1 53792U 22111V   24151.74656619  .00001748  00000-0  12786-3 0  9997,2 53792  53.2165 303.2007 0001020  82.6764 277.4344 15.08846312 95868,6917.861,95.437,540.432,539.02,0.0
53792.0,STARLINK-4739,PAYLOAD,2024-05-31 14:35:04,15.08845658,8.59e-05,53.2163,299.3366,86.9441,273.1649,0.00012122,1.642e-05,0.0,0 STARLINK-4739,1 53792U 22111V   24152.60768574  .00001642  00000-0  12122-3 0  9994,2 53792  53.2163 299.3366 0000859  86.9441 273.1649 15.08845658 95994,6917.863,95.437,540.322,539.134,0.0
53792.0,STARLINK-4739,PAYLOAD,2024-05-31 16:10:27,15.08844125,0.0001134,53.2167,299.0373,88.9908,271.1214,8.4706e-05,1.061e-05,0.0,0 STARLINK-4739,1 53792U 22111V   24152.67392592  .00001061  00000-0  84706-4 0  9997,2 53792  53.2167 299.0373 0001134  88.9908 271.1214 15.08844125 95208,6917.868,95.437,540.517,538.948,0.0
53792.0,STARLINK-4739,PAYLOAD,2024-06-01 03:18:08,15.08853316,0.0001225,53.2186,296.9543,93.3194,266.7938,8.2458e-05,1.025e-05,0.0,0 STARLINK-4739,1 53792U 22111V   24153.13759816  .00001025  00000-0  82458-4 0  9997,2 53792  53.2186 296.9543 0001225  93.3194 266.7938 15.08853316 95274,6917.84,95.437,540.552,538.857,0.0
53792.0,STARLINK-4739,PAYLOAD,2024-06-01 12:50:28,15.08825982,0.0001261,53.2164,295.173,88.2678,271.8458,-2.477e-05,-6.82e-06,0.0,0 STARLINK-4739,1 53792U 22111V   24153.53505563 -.00000682  00000-0 -24770-4 0  9992,2 53792  53.2164 295.1730 0001261  88.2678 271.8458 15.08825982 95338,6917.923,95.438,540.661,538.916,0.0
53792.0,STARLINK-4739,PAYLOAD,2024-06-01 14:25:51,15.08827336,0.0001267,53.2167,294.8757,88.7646,271.3491,-1.2546e-06,-3.08e-06,0.0,0 STARLINK-4739,1 53792U 22111V   24153.60129572 -.00000308  00000-0 -12546-5 0  9996,2 53792  53.2167 294.8757 0001267  88.7646 271.3491 15.08827336 96149,6917.919,95.438,540.661,538.908,0.0
53792.0,STARLINK-4739,PAYLOAD,2024-06-02 09:30:29,15.08836349,0.0001252,53.219,291.3073,92.307,267.8065,0.00016276,2.303e-05,0.0,0 STARLINK-4739,1 53792U 22111V   24154.39617524  .00002303  00000-0  16276-3 0  9999,2 53792  53.2190 291.3073 0001252  92.3070 267.8065 15.08836349 95469,6917.892,95.438,540.623,538.89,0.0
53792.0,STARLINK-4739,PAYLOAD,2024-06-02 15:52:02,15.08840041,0.0001238,53.2182,290.118,90.6474,269.466,0.0002071,3.01e-05,0.0,0 STARLINK-4739,1 53792U 22111V   24154.66113482  .00003010  00000-0  20710-3 0  9997,2 53792  53.2182 290.1180 0001238  90.6474 269.4660 15.08840041 96306,6917.88,95.438,540.602,538.889,0.0
53792.0,STARLINK-4739,PAYLOAD,2024-06-03 12:32:03,15.08841706,0.0001363,53.2174,286.2521,90.4285,269.6863,0.00031027,4.654e-05,0.0,0 STARLINK-4739,1 53792U 22111V   24155.52225820  .00004654  00000-0  31027-3 0  9991,2 53792  53.2174 286.2521 0001363  90.4285 269.6863 15.08841706 95630,6917.875,95.437,540.683,538.797,0.0
53792.0,STARLINK-4739,PAYLOAD,2024-06-03 15:42:49,15.08844732,0.0001358,53.2173,285.6569,90.6232,269.4916,0.00034303,5.176e-05,0.0,0 STARLINK-4739,1 53792U 22111V   24155.65473725  .00005176  00000-0  34303-3 0  9994,2 53792  53.2173 285.6569 0001358  90.6232 269.4916 15.08844732 96452,6917.866,95.437,540.67,538.791,0.0
53792.0,STARLINK-4739,PAYLOAD,2024-06-04 01:15:07,15.08858565,0.000138,53.2177,283.8711,86.3566,273.7584,0.00051869,7.981e-05,0.0,0 STARLINK-4739,1 53792U 22111V   24156.05216912  .00007981  00000-0  51869-3 0  9994,2 53792  53.2177 283.8711 0001380  86.3566 273.7584 15.08858565 95718,6917.824,95.436,540.643,538.734,0.0
53792.0,STARLINK-4739,PAYLOAD,2024-06-04 07:36:40,15.08845162,0.0001811,53.2136,282.6811,75.2108,284.9085,0.00015464,2.174e-05,0.0,0 STARLINK-4739,1 53792U 22111V   24156.31713532  .00002174  00000-0  15464-3 0  9993,2 53792  53.2136 282.6811 0001811  75.2108 284.9085 15.08845162 95752,6917.865,95.437,540.982,538.477,0.0
53792.0,STARLINK-4739,PAYLOAD,2024-06-04 15:33:35,15.08854215,0.0001855,53.2164,281.1967,89.2435,270.877,0.00027797,4.14e-05,0.0,0 STARLINK-4739,1 53792U 22111V   24156.64833012  .00004140  00000-0  27797-3 0  9992,2 53792  53.2164 281.1967 0001855  89.2435 270.8770 15.08854215 96604,6917.837,95.437,540.985,538.419,0.0
53792.0,STARLINK-4739,PAYLOAD,2024-06-05 12:13:37,15.08821473,0.0001149,53.217,277.3276,93.5392,266.5732,-0.00045713,-7.552e-05,0.0,0 STARLINK-4739,1 53792U 22111V   24157.50945735 -.00007552  00000-0 -45713-3 0  9994,2 53792  53.2170 277.3276 0001149  93.5392 266.5732 15.08821473 95932,6917.937,95.439,540.597,539.007,0.0
53792.0,STARLINK-4739,PAYLOAD,2024-06-05 20:10:32,15.08834335,0.0001297,53.2168,275.8409,114.107,246.0058,0.00013946,1.932e-05,0.0,0 STARLINK-4739,1 53792U 22111V   24157.84065740  .00001932  00000-0  13946-3 0  9997,2 53792  53.2168 275.8409 0001297 114.1070 246.0058 15.08834335 95987,6917.898,95.438,540.66,538.865,0.0
53792.0,STARLINK-4739,PAYLOAD,2024-06-06 12:04:24,15.08836096,0.0001178,53.2158,272.8724,97.4146,262.698,0.00047013,7.201e-05,0.0,0 STARLINK-4739,1 53792U 22111V   24158.50306211  .00007201  00000-0  47013-3 0  9999,2 53792  53.2158 272.8724 0001178  97.4146 262.6980 15.08836096 96882,6917.892,95.438,540.572,538.942,0.0
53792.0,STARLINK-4739,PAYLOAD,2024-06-06 16:50:34,15.08837364,0.0001565,53.215,271.978,101.3559,258.7609,0.0010144,0.00015892,0.0,0 STARLINK-4739,1 53792U 22111V   24158.70178430  .00015892  00000-0  10144-2 0  9990,2 53792  53.2150 271.9780 0001565 101.3559 258.7609 15.08837364 96118,6917.888,95.438,540.836,538.671,0.0
53792.0,STARLINK-4739,PAYLOAD,2024-06-08 00:38:16,15.08857056,0.0001744,53.2149,266.0301,96.8079,263.3112,0.0005391,8.306e-05,0.0,0 STARLINK-4739,1 53792U 22111V   24160.02657532  .00008306  00000-0  53910-3 0  9994,2 53792  53.2149 266.0301 0001744  96.8079 263.3112 15.08857056 96317,6917.828,95.436,540.9,538.487,0.0
53792.0,STARLINK-4739,PAYLOAD,2024-06-08 13:21:21,15.08852467,0.0002328,53.2133,263.6475,108.3106,251.814,0.00027988,4.17e-05,0.0,0 STARLINK-4739,1 53792U 22111V   24160.55649488  .00004170  00000-0  27988-3 0  9994,2 53792  53.2133 263.6475 0002328 108.3106 251.8140 15.08852467 97195,6917.842,95.437,541.318,538.097,0.0
53792.0,STARLINK-4739,PAYLOAD,2024-06-09 00:29:03,15.08845368,0.0002245,53.2114,261.5661,109.8819,250.2415,0.00015853,2.236e-05,0.0,0 STARLINK-4739,1 53792U 22111V   24161.02017503  .00002236  00000-0  15853-3 0  9993,2 53792  53.2114 261.5661 0002245 109.8819 250.2415 15.08845368 96462,6917.864,95.437,541.282,538.176,0.0
53792.0,STARLINK-4739,PAYLOAD,2024-06-09 11:36:45,15.08829048,0.0001426,53.2154,259.4882,95.6629,264.4526,-7.0319e-05,-1.407e-05,0.0,0 STARLINK-4739,1 53792U 22111V   24161.48386434 -.00001407  00000-0 -70319-4 0  9995,2 53792  53.2154 259.4882 0001426  95.6629 264.4526 15.08829048 96533,6917.914,95.438,540.765,538.792,0.0
53792.0,STARLINK-4739,PAYLOAD,2024-06-10 13:02:56,15.08837058,0.0001431,53.2168,254.7331,83.9524,276.1631,0.00020212,2.93e-05,0.0,0 STARLINK-4739,1 53792U 22111V   24162.54370617  .00002930  00000-0  20212-3 0  9995,2 53792  53.2168 254.7331 0001431  83.9524 276.1631 15.08837058 96699,6917.889,95.438,540.744,538.764,0.0
